[{"OBJECT_NAME":"STARLINK-1304","OBJECT_ID":"2020-019S","EPOCH":"2026-03-09T12:23:26.505600","MEAN_MOTION":15.48251524,"ECCENTRICITY":0.00022692,"INCLINATION":53.0494,"RA_OF_ASC_NODE":150.3277,"ARG_OF_PERICENTER":330.5798,"MEAN_ANOMALY":29.5081,"EPHEMERIS_TYPE":0,"CLASSIFICATION_TYPE":"U","NORAD_CAT_ID":45376,"ELEMENT_SET_NO":999,"REV_AT_EPOCH":32994,"BSTAR":0.0015279259,"MEAN_MOTION_DOT":0.00082321,"MEAN_MOTION_DDOT":0},{"OBJECT_NAME":"OBJECT AC","OBJECT_ID":"2024-199AC","EPOCH":"2026-03-09T22:27:25.552224","MEAN_MOTION":15.49748624,"ECCENTRICITY":0.00048973,"INCLINATION":97.3101,"RA_OF_ASC_NODE":303.6895,"ARG_OF_PERICENTER":286.8093,"MEAN_ANOMALY":73.2621,"EPHEMERIS_TYPE":0,"CLASSIFICATION_TYPE":"U","NORAD_CAT_ID":61761,"ELEMENT_SET_NO":999,"REV_AT_EPOCH":12220,"BSTAR":0.00074432819,"MEAN_MOTION_DOT":0.00041426,"MEAN_MOTION_DDOT":0}]
